1 47524U 21006DQ  21054.12407896  .00001439  00000-0  88390-4 0  9999
2 47524  97.5005 117.2599 0010665 146.9421 213.2478 15.11615930  4765
1 47467U 21006BG  21053.86075148  .00001393  00000-0  85861-4 0  9995
2 47467  97.4995 116.9939 0010666 149.8091 210.3756 15.11539090  4723
1 47463U 21006BC  21053.86202839  .00001407  00000-0  86849-4 0  9993
2 47463  97.4990 116.9904 0010605 151.3085 208.8730 15.11473292  4725
1 46494U 20068J   21076.86614335  .00000309  00000-0  27096-4 0  9995
2 46494  97.6865  14.9831 0019800  34.0117 326.2373 15.03513835 25579
1 47721U 21015W   21077.08273499 -.00000069  00000-0  00000+0 0  9994
2 47721  97.4696 152.2437 0010217 209.5235 150.5688 15.20400002  2699
1 47716U 21015T   21075.16808451 -.00000070  00000-0  00000-0 0  9990
2 47716  97.4604 150.3393 0010213 234.7013 125.3388 15.20966704  2303
